{
  "type": "FeatureCollection",
  "features": [
    {
      "type": "Feature",
      "properties": {
        "norad_id": 66689,
        "name": "TRANSPORTER-15 Z",
        "group": "last-30-days",
        "lat": -11.875468161004692,
        "lon": -114.35335250791708,
        "alt_km": 513.1314363366919,
        "timestamp": "2025-12-21T14:40:46.633263+00:00",
        "meta_object_name": "TRANSPORTER-15 Z",
        "meta_object_id": "2025-276Z",
        "meta_epoch": "2025-12-21T05:55:52.014720",
        "meta_mean_motion": 15.18560021,
        "meta_eccentricity": 0.00033249,
        "meta_inclination": 97.4422,
        "meta_ra_of_asc_node": 66.8629,
        "meta_arg_of_pericenter": 280.5478,
        "meta_mean_anomaly": 79.5382,
        "meta_ephemeris_type": 0,
        "meta_classification_type": "U",
        "meta_norad_cat_id": 66689,
        "meta_element_set_no": 999,
        "meta_rev_at_epoch": 341,
        "meta_bstar": 0.0312292,
        "meta_mean_motion_dot": 0.00690544,
        "meta_mean_motion_ddot": 0,
        "tle_line1": "1 66689U 25276Z   25355.24712980  .00690544  00000+0  31229-1 0  9995",
        "tle_line2": "2 66689  97.4422  66.8629 0003324 280.5478  79.5382 15.18560021  3419"
      },
      "geometry": {
        "type": "Point",
        "coordinates": [
          -114.35335250791708,
          -11.875468161004692
        ]
      }
    },
    {
      "type": "Feature",
      "properties": {
        "norad_id": 66690,
        "name": "TRANSPORTER-15 AA",
        "group": "last-30-days",
        "lat": 9.964502600014523,
        "lon": -111.47948917225843,
        "alt_km": 516.2364122539111,
        "timestamp": "2025-12-21T14:40:46.633275+00:00",
        "meta_object_name": "TRANSPORTER-15 AA",
        "meta_object_id": "2025-276AA",
        "meta_epoch": "2025-12-21T04:26:05.237376",
        "meta_mean_motion": 15.17037319,
        "meta_eccentricity": 0.00035998,
        "meta_inclination": 97.4406,
        "meta_ra_of_asc_node": 66.7858,
        "meta_arg_of_pericenter": 255.6826,
        "meta_mean_anomaly": 104.4008,
        "meta_ephemeris_type": 0,
        "meta_classification_type": "U",
        "meta_norad_cat_id": 66690,
        "meta_element_set_no": 999,
        "meta_rev_at_epoch": 340,
        "meta_bstar": 0.00029257578,
        "meta_mean_motion_dot": 5.722e-05,
        "meta_mean_motion_ddot": 0,
        "tle_line1": "1 66690U 25276AA  25355.18478284  .00005722  00000+0  29258-3 0  9995",
        "tle_line2": "2 66690  97.4406  66.7858 0003599 255.6826 104.4008 15.17037319  3400"
      },
      "geometry": {
        "type": "Point",
        "coordinates": [
          -111.47948917225843,
          9.964502600014523
        ]
      }
    },
    {
      "type": "Feature",
      "properties": {
        "norad_id": 66691,
        "name": "TRANSPORTER-15 AB",
        "group": "last-30-days",
        "lat": 0.15830801426481667,
        "lon": -112.76338183623278,
        "alt_km": 516.5664000583347,
        "timestamp": "2025-12-21T14:40:46.633285+00:00",
        "meta_object_name": "TRANSPORTER-15 AB",
        "meta_object_id": "2025-276AB",
        "meta_epoch": "2025-12-21T04:23:34.137600",
        "meta_mean_motion": 15.17258567,
        "meta_eccentricity": 0.00036576,
        "meta_inclination": 97.4425,
        "meta_ra_of_asc_node": 66.7949,
        "meta_arg_of_pericenter": 257.2256,
        "meta_mean_anomaly": 102.8569,
        "meta_ephemeris_type": 0,
        "meta_classification_type": "U",
        "meta_norad_cat_id": 66691,
        "meta_element_set_no": 999,
        "meta_rev_at_epoch": 340,
        "meta_bstar": 0.00036298102,
        "meta_mean_motion_dot": 7.162e-05,
        "meta_mean_motion_ddot": 0,
        "tle_line1": "1 66691U 25276AB  25355.18303400  .00007162  00000+0  36298-3 0  9995",
        "tle_line2": "2 66691  97.4425  66.7949 0003657 257.2256 102.8569 15.17258567  3407"
      },
      "geometry": {
        "type": "Point",
        "coordinates": [
          -112.76338183623278,
          0.15830801426481667
        ]
      }
    },
    {
      "type": "Feature",
      "properties": {
        "norad_id": 66692,
        "name": "TRANSPORTER-15 AC",
        "group": "last-30-days",
        "lat": -17.064576974971807,
        "lon": -115.0731510463933,
        "alt_km": 516.6400134817914,
        "timestamp": "2025-12-21T14:40:46.633295+00:00",
        "meta_object_name": "TRANSPORTER-15 AC",
        "meta_object_id": "2025-276AC",
        "meta_epoch": "2025-12-21T04:19:10.255584",
        "meta_mean_motion": 15.17635835,
        "meta_eccentricity": 0.0002267,
        "meta_inclination": 97.4426,
        "meta_ra_of_asc_node": 66.8023,
        "meta_arg_of_pericenter": 248.2233,
        "meta_mean_anomaly": 111.8759,
        "meta_ephemeris_type": 0,
        "meta_classification_type": "U",
        "meta_norad_cat_id": 66692,
        "meta_element_set_no": 999,
        "meta_rev_at_epoch": 340,
        "meta_bstar": 0.0063822735,
        "meta_mean_motion_dot": 0.00130571,
        "meta_mean_motion_ddot": 0,
        "tle_line1": "1 66692U 25276AC  25355.17997981  .00130571  00000+0  63823-2 0  9992",
        "tle_line2": "2 66692  97.4426  66.8023 0002267 248.2233 111.8759 15.17635835  3402"
      },
      "geometry": {
        "type": "Point",
        "coordinates": [
          -115.0731510463933,
          -17.064576974971807
        ]
      }
    },
    {
      "type": "Feature",
      "properties": {
        "norad_id": 66693,
        "name": "TRANSPORTER-15 AD",
        "group": "last-30-days",
        "lat": -14.958489393071149,
        "lon": -114.79256783020706,
        "alt_km": 517.8773683577056,
        "timestamp": "2025-12-21T14:40:46.633305+00:00",
        "meta_object_name": "TRANSPORTER-15 AD",
        "meta_object_id": "2025-276AD",
        "meta_epoch": "2025-12-21T04:19:40.149120",
        "meta_mean_motion": 15.17552994,
        "meta_eccentricity": 0.00032435,
        "meta_inclination": 97.4381,
        "meta_ra_of_asc_node": 66.7841,
        "meta_arg_of_pericenter": 282.8579,
        "meta_mean_anomaly": 77.2292,
        "meta_ephemeris_type": 0,
        "meta_classification_type": "U",
        "meta_norad_cat_id": 66693,
        "meta_element_set_no": 999,
        "meta_rev_at_epoch": 340,
        "meta_bstar": 0.00046958002,
        "meta_mean_motion_dot": 9.365e-05,
        "meta_mean_motion_ddot": 0,
        "tle_line1": "1 66693U 25276AD  25355.18032580  .00009365  00000+0  46958-3 0  9996",
        "tle_line2": "2 66693  97.4381  66.7841 0003243 282.8579  77.2292 15.17552994  3403"
      },
      "geometry": {
        "type": "Point",
        "coordinates": [
          -114.79256783020706,
          -14.958489393071149
        ]
      }
    },
    {
      "type": "Feature",
      "properties": {
        "norad_id": 66694,
        "name": "YAM-9",
        "group": "last-30-days",
        "lat": -24.922688888709303,
        "lon": -116.25760313794797,
        "alt_km": 517.6461386857618,
        "timestamp": "2025-12-21T14:40:46.633318+00:00",
        "meta_object_name": "YAM-9",
        "meta_object_id": "2025-276AE",
        "meta_epoch": "2025-12-21T04:17:01.572288",
        "meta_mean_motion": 15.1753836,
        "meta_eccentricity": 0.00018821,
        "meta_inclination": 97.4431,
        "meta_ra_of_asc_node": 66.7994,
        "meta_arg_of_pericenter": 199.1613,
        "meta_mean_anomaly": 160.955,
        "meta_ephemeris_type": 0,
        "meta_classification_type": "U",
        "meta_norad_cat_id": 66694,
        "meta_element_set_no": 999,
        "meta_rev_at_epoch": 340,
        "meta_bstar": 0.00042150626,
        "meta_mean_motion_dot": 8.395e-05,
        "meta_mean_motion_ddot": 0,
        "tle_line1": "1 66694U 25276AE  25355.17849042  .00008395  00000+0  42151-3 0  9998",
        "tle_line2": "2 66694  97.4431  66.7994 0001882 199.1613 160.9550 15.17538360  3403"
      },
      "geometry": {
        "type": "Point",
        "coordinates": [
          -116.25760313794797,
          -24.922688888709303
        ]
      }
    },
    {
      "type": "Feature",
      "properties": {
        "norad_id": 66695,
        "name": "IRIDE FM1",
        "group": "last-30-days",
        "lat": -77.10183258132028,
        "lon": -147.5579417712657,
        "alt_km": 518.8646366746298,
        "timestamp": "2025-12-21T14:40:46.633328+00:00",
        "meta_object_name": "IRIDE FM1",
        "meta_object_id": "2025-276AF",
        "meta_epoch": "2025-12-21T04:02:58.530336",
        "meta_mean_motion": 15.18219502,
        "meta_eccentricity": 0.00012138,
        "meta_inclination": 97.4411,
        "meta_ra_of_asc_node": 66.8083,
        "meta_arg_of_pericenter": 148.9531,
        "meta_mean_anomaly": 211.1775,
        "meta_ephemeris_type": 0,
        "meta_classification_type": "U",
        "meta_norad_cat_id": 66695,
        "meta_element_set_no": 999,
        "meta_rev_at_epoch": 340,
        "meta_bstar": 0.00037197458,
        "meta_mean_motion_dot": 7.546e-05,
        "meta_mean_motion_ddot": 0,
        "tle_line1": "1 66695U 25276AF  25355.16873299  .00007546  00000+0  37197-3 0  9990",
        "tle_line2": "2 66695  97.4411  66.8083 0001213 148.9531 211.1775 15.18219502  3404"
      },
      "geometry": {
        "type": "Point",
        "coordinates": [
          -147.5579417712657,
          -77.10183258132028
        ]
      }
    }
  ]
}